NORAD_CAT_ID,OBJECT_NAME,OBJECT_TYPE,EPOCH,MEAN_MOTION,ECCENTRICITY,INCLINATION,RA_OF_ASC_NODE,ARG_OF_PERICENTER,MEAN_ANOMALY,BSTAR,MEAN_MOTION_DOT,MEAN_MOTION_DDOT,TLE_LINE0,TLE_LINE1,TLE_LINE2,SEMIMAJOR_AXIS,PERIOD,APOGEE,PERIGEE,DECAYED
52113.0,STARLINK-3736,PAYLOAD,2023-05-05 05:38:23,15.08855443,0.0001118,53.2171,65.4105,93.4066,266.7054,0.00011392,1.526e-05,0.0,0 STARLINK-3736,1 52113U 22029AB  23125.23499054  .00001526  00000-0  11392-3 0  9999,2 52113  53.2171  65.4105 0001118  93.4066 266.7054 15.08855443 63869,6917.833,95.437,540.472,538.925,0.0
52113.0,STARLINK-3736,PAYLOAD,2023-05-06 02:18:24,15.08843072,0.0001088,53.2173,61.5448,101.9322,258.1792,9.4473e-05,1.216e-05,0.0,0 STARLINK-3736,1 52113U 22029AB  23126.09612016  .00001216  00000-0  94473-4 0  9997,2 52113  53.2173  61.5448 0001088 101.9322 258.1792 15.08843072 63997,6917.871,95.437,540.489,538.983,0.0
52113.0,STARLINK-3736,PAYLOAD,2023-05-06 05:29:10,15.0884773,0.0001118,53.2172,60.9498,101.4189,258.6929,0.00014337,1.995e-05,0.0,0 STARLINK-3736,1 52113U 22029AB  23126.22859756  .00001995  00000-0  14337-3 0  9990,2 52113  53.2172  60.9498 0001118 101.4189 258.6929 15.08847730 64010,6917.857,95.437,540.495,538.948,0.0
52113.0,STARLINK-3736,PAYLOAD,2023-05-07 05:19:57,15.0885363,0.0001087,53.2163,56.4902,92.1425,267.9692,0.00014299,1.989e-05,0.0,0 STARLINK-3736,1 52113U 22029AB  23127.22219335  .00001989  00000-0  14299-3 0  9994,2 52113  53.2163  56.4902 0001087  92.1425 267.9692 15.08853630 64166,6917.839,95.437,540.456,538.952,0.0
52113.0,STARLINK-3736,PAYLOAD,2023-05-08 03:35:23,15.08831865,0.0001096,53.2173,52.3263,84.5126,275.5991,-1.6462e-05,-5.5e-06,0.0,0 STARLINK-3736,1 52113U 22029AB  23128.14957404 -.00000550  00000-0 -16462-4 0  9992,2 52113  53.2173  52.3263 0001096  84.5126 275.5991 15.08831865 64304,6917.905,95.438,540.528,539.012,0.0
52113.0,STARLINK-3736,PAYLOAD,2023-05-08 22:39:59,15.08850925,0.0001075,53.2176,48.7579,77.3219,282.7893,0.00010311,1.354e-05,0.0,0 STARLINK-3736,1 52113U 22029AB  23128.94444204  .00001354  00000-0  10311-3 0  9996,2 52113  53.2176  48.7579 0001075  77.3219 282.7893 15.08850925 64428,6917.847,95.437,540.456,538.968,0.0
52113.0,STARLINK-3736,PAYLOAD,2023-05-09 05:01:31,15.08862113,0.0001164,53.2167,47.5695,87.4748,272.6377,0.00033985,5.128e-05,0.0,0 STARLINK-3736,1 52113U 22029AB  23129.20939379  .00005128  00000-0  33985-3 0  9993,2 52113  53.2167  47.5695 0001164  87.4748 272.6377 15.08862113 64463,6917.813,95.436,540.483,538.873,0.0
52113.0,STARLINK-3736,PAYLOAD,2023-05-10 01:41:33,15.08842668,0.0001281,53.2171,43.7037,82.6863,277.4275,0.00011278,1.508e-05,0.0,0 STARLINK-3736,1 52113U 22029AB  23130.07052763  .00001508  00000-0  11278-3 0  9992,2 52113  53.2171  43.7037 0001281  82.6863 277.4275 15.08842668 64598,6917.872,95.437,540.623,538.851,0.0
52113.0,STARLINK-3736,PAYLOAD,2023-05-11 01:32:20,15.08846522,0.0001266,53.2165,39.2418,91.9999,268.1138,8.1371e-05,1.008e-05,0.0,0 STARLINK-3736,1 52113U 22029AB  23131.06412368  .00001008  00000-0  81371-4 0  9990,2 52113  53.2165  39.2418 0001266  91.9999 268.1138 15.08846522 64745,6917.86,95.437,540.601,538.85,0.0
52113.0,STARLINK-3736,PAYLOAD,2023-05-11 20:36:59,15.0883168,0.0001639,53.217,35.6742,70.7759,289.3411,6.2314e-05,7.04e-06,0.0,0 STARLINK-3736,1 52113U 22029AB  23131.85901893  .00000704  00000-0  62314-4 0  9991,2 52113  53.2170  35.6742 0001639  70.7759 289.3411 15.08831680 64865,6917.906,95.438,540.905,538.637,0.0
52113.0,STARLINK-3736,PAYLOAD,2023-05-11 23:47:45,15.08832855,0.0001261,53.2165,35.079,97.9153,262.1982,5.7889e-05,6.33e-06,0.0,0 STARLINK-3736,1 52113U 22029AB  23131.99149675  .00000633  00000-0  57889-4 0  9990,2 52113  53.2165  35.0790 0001261  97.9153 262.1982 15.08832855 64885,6917.902,95.438,540.64,538.895,0.0
52113.0,STARLINK-3736,PAYLOAD,2023-05-12 23:38:31,15.08856574,0.0001197,53.2167,30.619,88.9349,271.178,0.00044586,6.818e-05,0.0,0 STARLINK-3736,1 52113U 22029AB  23132.98509030  .00006818  00000-0  44586-3 0  9995,2 52113  53.2167  30.6190 0001197  88.9349 271.1780 15.08856574 65035,6917.83,95.437,540.523,538.867,0.0
52113.0,STARLINK-3736,PAYLOAD,2023-05-13 20:18:32,15.08846195,9.86e-05,53.2169,26.7547,96.173,263.9375,0.00018765,2.7e-05,0.0,0 STARLINK-3736,1 52113U 22029AB  23133.84621284  .00002700  00000-0  18765-3 0  9993,2 52113  53.2169  26.7547 0000986  96.1730 263.9375 15.08846195 65160,6917.861,95.437,540.409,539.044,0.0
52113.0,STARLINK-3736,PAYLOAD,2023-05-13 23:29:18,15.08848295,9.68e-05,53.2172,26.1593,94.2154,265.8949,0.00020955,3.05e-05,0.0,0 STARLINK-3736,1 52113U 22029AB  23133.97869154  .00003050  00000-0  20955-3 0  9990,2 52113  53.2172  26.1593 0000968  94.2154 265.8949 15.08848295 65181,6917.855,95.437,540.39,539.05,0.0
52113.0,STARLINK-3736,PAYLOAD,2023-05-14 20:09:19,15.08842927,9.85e-05,53.2177,22.2938,87.0272,273.0833,-8.6121e-07,-3.01e-06,0.0,0 STARLINK-3736,1 52113U 22029AB  23134.83981229 -.00000301  00000-0 -86121-6 0  9992,2 52113  53.2177  22.2938 0000985  87.0272 273.0833 15.08842927 65310,6917.871,95.437,540.418,539.055,0.0
52113.0,STARLINK-3736,PAYLOAD,2023-05-15 08:52:24,15.08842728,9.67e-05,53.2161,19.9127,55.7574,304.351,-3.5877e-05,-8.59e-06,0.0,0 STARLINK-3736,1 52113U 22029AB  23135.36973076 -.00000859  00000-0 -35877-4 0  9990,2 52113  53.2161  19.9127 0000967  55.7574 304.3510 15.08842728 65390,6917.872,95.437,540.406,539.068,0.0
52113.0,STARLINK-3736,PAYLOAD,2023-05-15 23:10:53,15.08836809,8.08e-05,53.2163,17.2369,60.4998,299.6075,-1.4767e-05,-5.23e-06,0.0,0 STARLINK-3736,1 52113U 22029AB  23135.96589647 -.00000523  00000-0 -14767-4 0  9996,2 52113  53.2163  17.2369 0000808  60.4998 299.6075 15.08836809 65483,6917.89,95.438,540.314,539.196,0.0
52113.0,STARLINK-3736,PAYLOAD,2023-05-16 15:04:44,15.08836407,8.26e-05,53.2159,14.2633,58.3066,301.8006,2.2372e-05,6.8e-07,0.0,0 STARLINK-3736,1 52113U 22029AB  23136.62829815  .00000068  00000-0  22372-4 0  9997,2 52113  53.2159  14.2633 0000826  58.3066 301.8006 15.08836407 65586,6917.891,95.438,540.328,539.185,0.0
52113.0,STARLINK-3736,PAYLOAD,2023-05-17 00:37:03,15.08840037,7.02e-05,53.2159,12.4805,68.8737,291.233,0.00010012,1.306e-05,0.0,0 STARLINK-3736,1 52113U 22029AB  23137.02573744  .00001306  00000-0  10012-3 0  9992,2 52113  53.2159  12.4805 0000702  68.8737 291.2330 15.08840037 65644,6917.88,95.438,540.231,539.26,0.0
52113.0,STARLINK-3736,PAYLOAD,2023-05-17 21:17:05,15.08835873,9.54e-05,53.2184,8.6166,77.5347,282.5752,7.5575e-05,9.15e-06,0.0,0 STARLINK-3736,1 52113U 22029AB  23137.88686360  .00000915  00000-0  75575-4 0  9996,2 52113  53.2184   8.6166 0000954  77.5347 282.5752 15.08835873 65779,6917.893,95.438,540.418,539.098,0.0
52113.0,STARLINK-3736,PAYLOAD,2023-05-17 22:52:28,15.08837514,9.7e-05,53.218,8.3191,76.5628,283.5472,8.3114e-05,1.035e-05,0.0,0 STARLINK-3736,1 52113U 22029AB  23137.95310243  .00001035  00000-0  83114-4 0  9990,2 52113  53.2180   8.3191 0000970  76.5628 283.5472 15.08837514 65784,6917.888,95.438,540.424,539.082,0.0
52113.0,STARLINK-3736,PAYLOAD,2023-05-18 14:46:19,15.08840384,0.0001014,53.2179,5.3455,88.8037,271.3071,8.5572e-05,1.074e-05,0.0,0 STARLINK-3736,1 52113U 22029AB  23138.61550022  .00001074  00000-0  85572-4 0  9998,2 52113  53.2179   5.3455 0001014  88.8037 271.3071 15.08840384 65882,6917.879,95.438,540.446,539.043,0.0
52113.0,STARLINK-3736,PAYLOAD,2023-05-18 17:57:05,15.08842028,0.000104,53.2178,4.751,82.4741,277.6369,5.7745e-05,6.31e-06,0.0,0 STARLINK-3736,1 52113U 22029AB  23138.74798024  .00000631  00000-0  57745-4 0  9997,2 52113  53.2178   4.7510 0001040  82.4741 277.6369 15.08842028 65906,6917.874,95.437,540.459,539.02,0.0
52113.0,STARLINK-3736,PAYLOAD,2023-05-19 20:58:38,15.08844336,8.98e-05,53.2173,359.6948,90.1183,269.9912,7.2754e-05,8.7e-06,0.0,0 STARLINK-3736,1 52113U 22029AB  23139.87405834  .00000870  00000-0  72754-4 0  9998,2 52113  53.2173 359.6948 0000898  90.1183 269.9912 15.08844336 66075,6917.867,95.437,540.353,539.111,0.0
52113.0,STARLINK-3736,PAYLOAD,2023-05-20 00:09:24,15.08846764,9.22e-05,53.2173,359.0998,89.4073,270.7025,9.1913e-05,1.176e-05,0.0,0 STARLINK-3736,1 52113U 22029AB  23140.00653594  .00001176  00000-0  91913-4 0  9991,2 52113  53.2173 359.0998 0000922  89.4073 270.7025 15.08846764 66095,6917.86,95.437,540.363,539.087,0.0
52113.0,STARLINK-3736,PAYLOAD,2023-05-20 20:49:24,15.08853652,9.54e-05,53.2175,355.232,115.5278,244.5813,0.00016171,2.288e-05,0.0,0 STARLINK-3736,1 52113U 22029AB  23140.86764647  .00002288  00000-0  16171-3 0  9994,2 52113  53.2175 355.2320 0000954 115.5278 244.5813 15.08853652 66220,6917.839,95.437,540.364,539.044,0.0
52113.0,STARLINK-3736,PAYLOAD,2023-05-21 00:00:11,15.08856574,9.97e-05,53.2169,354.6368,106.2331,253.8771,0.00032994,4.969e-05,0.0,0 STARLINK-3736,1 52113U 22029AB  23141.00012841  .00004969  00000-0  32994-3 0  9992,2 52113  53.2169 354.6368 0000997 106.2331 253.8771 15.08856574 66246,6917.83,95.437,540.384,539.005,0.0
52113.0,STARLINK-3736,PAYLOAD,2023-05-21 20:40:13,15.0882631,8.89e-05,53.2167,350.7735,69.275,290.8338,-0.00015277,-2.717e-05,0.0,0 STARLINK-3736,1 52113U 22029AB  23141.86126873 -.00002717  00000-0 -15277-3 0  9993,2 52113  53.2167 350.7735 0000889  69.2750 290.8338 15.08826310 66371,6917.922,95.438,540.402,539.172,0.0
52113.0,STARLINK-3736,PAYLOAD,2023-05-21 23:51:00,15.08824683,8.68e-05,53.2165,350.1776,72.2802,287.8285,-0.00014638,-2.616e-05,0.0,0 STARLINK-3736,1 52113U 22029AB  23141.99375069 -.00002616  00000-0 -14638-3 0  9998,2 52113  53.2165 350.1776 0000868  72.2802 287.8285 15.08824683 66397,6917.927,95.439,540.393,539.192,0.0
52113.0,STARLINK-3736,PAYLOAD,2023-05-22 14:09:28,15.08834731,7.69e-05,53.2165,347.5041,64.3268,295.7803,4.3021e-05,3.97e-06,0.0,0 STARLINK-3736,1 52113U 22029AB  23142.58990934  .00000397  00000-0  43021-4 0  9999,2 52113  53.2165 347.5041 0000769  64.3268 295.7803 15.08834731 66489,6917.896,95.438,540.293,539.23,0.0
